KUIPER-00152            
1 65772U 25217L   26003.33336806 -.01545887  00000+0 -10652+0 0  9999
2 65772  51.8885 321.6404 0001907 124.2055 283.0202 15.08919901  5870
KUIPER-00153            
1 65773U 25217M   26003.12182601  .00027288  00000+0  15871-2 0  9997
2 65773  51.8791 332.7529 0013575  96.3729 263.8793 15.11796086 15175
KUIPER-00155            
1 65774U 25217N   26003.33336806 -.00912988  00000+0 -33968-1 0  9997
2 65774  51.8698 320.4592 0006851 104.6621 117.3682 15.29802988  4861
KUIPER-00156            
1 65775U 25217P   26003.33336806 -.00094878  00000+0 -34771-2 0  9991
2 65775  51.8760 319.7716 0002561 118.4454  71.4167 15.27793124  5567
KUIPER-00158            
1 65776U 25217Q   26003.31161497  .00007693  00000+0  10359-2 0  9995
2 65776  51.8996 334.6925 0001144  51.0211 309.0854 14.79975442 15167
KUIPER-00163            
1 65777U 25217R   26003.10641453  .00000920  00000+0  14989-3 0  9998
2 65777  51.8990 338.1064 0000532 108.0492 252.0528 14.79873953 15090
KUIPER-00165            
1 65778U 25217S   26003.33336806 -.00983964  00000+0 -99932-1 0  9996
2 65778  51.8958 325.2388 0005657 122.1517 176.4792 14.93317895  5331
KUIPER-00166            
1 65779U 25217T   26003.33336806 -.00412296  00000+0 -12967-1 0  9995
2 65779  51.8715 319.5923 0005129  82.7661 206.1811 15.34113724  3836
